[{"OBJECT_NAME":"LEMUR-2-AMANDA-SVANTE","OBJECT_ID":"2021-034B","EPOCH":"2026-03-09T18:37:58.823328","MEAN_MOTION":15.28469003,"ECCENTRICITY":0.00027027,"INCLINATION":97.5829,"RA_OF_ASC_NODE":144.8625,"ARG_OF_PERICENTER":205.4721,"MEAN_ANOMALY":154.6385,"EPHEMERIS_TYPE":0,"CLASSIFICATION_TYPE":"U","NORAD_CAT_ID":48269,"ELEMENT_SET_NO":999,"REV_AT_EPOCH":26584,"BSTAR":0.0011134246,"MEAN_MOTION_DOT":0.00030872,"MEAN_MOTION_DDOT":0},{"OBJECT_NAME":"STARLINK-36517","OBJECT_ID":"2026-008K","EPOCH":"2026-03-09T10:56:23.735328","MEAN_MOTION":15.27599223,"ECCENTRICITY":0.0002153,"INCLINATION":42.9956,"RA_OF_ASC_NODE":206.7869,"ARG_OF_PERICENTER":179.317,"MEAN_ANOMALY":180.7685,"EPHEMERIS_TYPE":0,"CLASSIFICATION_TYPE":"U","NORAD_CAT_ID":67454,"ELEMENT_SET_NO":999,"REV_AT_EPOCH":953,"BSTAR":0.00089482044,"MEAN_MOTION_DOT":0.00024458,"MEAN_MOTION_DDOT":0}]
